{
  "type": "FeatureCollection",
  "features": [
    {
      "type": "Feature",
      "properties": {
        "norad_id": 66052,
        "name": "HRC MONOBLOCK CAMERA",
        "group": "stations",
        "lat": -17.25953592585862,
        "lon": -7.631204076135786,
        "alt_km": 406.13879237974925,
        "timestamp": "2025-12-09T09:46:46.439166+00:00",
        "meta_object_name": "HRC MONOBLOCK CAMERA",
        "meta_object_id": "1998-067XR",
        "meta_epoch": "2025-12-09T02:44:20.184000",
        "meta_mean_motion": 15.53759866,
        "meta_eccentricity": 0.0003848,
        "meta_inclination": 51.6287,
        "meta_ra_of_asc_node": 159.5802,
        "meta_arg_of_pericenter": 169.4423,
        "meta_mean_anomaly": 190.6649,
        "meta_ephemeris_type": 0,
        "meta_classification_type": "U",
        "meta_norad_cat_id": 66052,
        "meta_element_set_no": 999,
        "meta_rev_at_epoch": 827,
        "meta_bstar": 0.00065126,
        "meta_mean_motion_dot": 0.00042294,
        "meta_mean_motion_ddot": 0,
        "tle_line1": "1 66052U 98067XR  25343.11412250  .00042294  00000+0  65126-3 0  9995",
        "tle_line2": "2 66052  51.6287 159.5802 0003848 169.4423 190.6649 15.53759866  8279"
      },
      "geometry": {
        "type": "Point",
        "coordinates": [
          -7.631204076135786,
          -17.25953592585862
        ]
      }
    },
    {
      "type": "Feature",
      "properties": {
        "norad_id": 66174,
        "name": "HTV-X1",
        "group": "stations",
        "lat": 23.998137918778895,
        "lon": -41.675774467507615,
        "alt_km": 414.9376512366798,
        "timestamp": "2025-12-09T09:46:46.439176+00:00",
        "meta_object_name": "HTV-X1",
        "meta_object_id": "2025-241A",
        "meta_epoch": "2025-12-08T20:45:25.501536",
        "meta_mean_motion": 15.49428834,
        "meta_eccentricity": 0.00033811,
        "meta_inclination": 51.6308,
        "meta_ra_of_asc_node": 161.6653,
        "meta_arg_of_pericenter": 221.9847,
        "meta_mean_anomaly": 138.0883,
        "meta_ephemeris_type": 0,
        "meta_classification_type": "U",
        "meta_norad_cat_id": 66174,
        "meta_element_set_no": 999,
        "meta_rev_at_epoch": 51,
        "meta_bstar": 0.00022803662,
        "meta_mean_motion_dot": 0.00012323,
        "meta_mean_motion_ddot": 0,
        "tle_line1": "1 66174U 25241A   25342.86487849  .00012323  00000+0  22804-3 0  9997",
        "tle_line2": "2 66174  51.6308 161.6653 0003381 221.9847 138.0883 15.49428834   510"
      },
      "geometry": {
        "type": "Point",
        "coordinates": [
          -41.675774467507615,
          23.998137918778895
        ]
      }
    },
    {
      "type": "Feature",
      "properties": {
        "norad_id": 66515,
        "name": "SZ-21 MODULE",
        "group": "stations",
        "lat": 1.7052182402433698,
        "lon": 38.29969682043217,
        "alt_km": 382.6264237772775,
        "timestamp": "2025-12-09T09:46:46.439186+00:00",
        "meta_object_name": "SZ-21 MODULE",
        "meta_object_id": "2025-246C",
        "meta_epoch": "2025-12-08T12:17:19.006656",
        "meta_mean_motion": 15.62178331,
        "meta_eccentricity": 0.00062383,
        "meta_inclination": 41.4773,
        "meta_ra_of_asc_node": 41.8306,
        "meta_arg_of_pericenter": 236.9164,
        "meta_mean_anomaly": 123.1077,
        "meta_ephemeris_type": 0,
        "meta_classification_type": "U",
        "meta_norad_cat_id": 66515,
        "meta_element_set_no": 999,
        "meta_rev_at_epoch": 378,
        "meta_bstar": 0.00033876447,
        "meta_mean_motion_dot": 0.00030446,
        "meta_mean_motion_ddot": 0,
        "tle_line1": "1 66515U 25246C   25342.51202554  .00030446  00000+0  33876-3 0  9998",
        "tle_line2": "2 66515  41.4773  41.8306 0006238 236.9164 123.1077 15.62178331  3789"
      },
      "geometry": {
        "type": "Point",
        "coordinates": [
          38.29969682043217,
          1.7052182402433698
        ]
      }
    },
    {
      "type": "Feature",
      "properties": {
        "norad_id": 66645,
        "name": "SHENZHOU-22",
        "group": "stations",
        "lat": 28.43428993530627,
        "lon": 179.1159754001865,
        "alt_km": 390.0191222729045,
        "timestamp": "2025-12-09T09:46:46.439197+00:00",
        "meta_object_name": "SHENZHOU-22",
        "meta_object_id": "2025-272A",
        "meta_epoch": "2025-12-08T14:45:28.776096",
        "meta_mean_motion": 15.58905517,
        "meta_eccentricity": 0.00091311,
        "meta_inclination": 41.4682,
        "meta_ra_of_asc_node": 41.7451,
        "meta_arg_of_pericenter": 357.4459,
        "meta_mean_anomaly": 2.6332,
        "meta_ephemeris_type": 0,
        "meta_classification_type": "U",
        "meta_norad_cat_id": 66645,
        "meta_element_set_no": 999,
        "meta_rev_at_epoch": 26300,
        "meta_bstar": 0.0003572809,
        "meta_mean_motion_dot": 0.0002832,
        "meta_mean_motion_ddot": 0,
        "tle_line1": "1 66645U 25272A   25342.61491639  .00028320  00000+0  35728-3 0  9992",
        "tle_line2": "2 66645  41.4682  41.7451 0009131 357.4459   2.6332 15.58905517263000"
      },
      "geometry": {
        "type": "Point",
        "coordinates": [
          179.1159754001865,
          28.43428993530627
        ]
      }
    },
    {
      "type": "Feature",
      "properties": {
        "norad_id": 66664,
        "name": "SOYUZ-MS 28",
        "group": "stations",
        "lat": 23.998095131645858,
        "lon": -41.67573111131737,
        "alt_km": 414.9376558734757,
        "timestamp": "2025-12-09T09:46:46.439214+00:00",
        "meta_object_name": "SOYUZ-MS 28",
        "meta_object_id": "2025-275A",
        "meta_epoch": "2025-12-08T20:45:25.500672",
        "meta_mean_motion": 15.49428834,
        "meta_eccentricity": 0.0003381,
        "meta_inclination": 51.6308,
        "meta_ra_of_asc_node": 161.6653,
        "meta_arg_of_pericenter": 221.9847,
        "meta_mean_anomaly": 138.0883,
        "meta_ephemeris_type": 0,
        "meta_classification_type": "U",
        "meta_norad_cat_id": 66664,
        "meta_element_set_no": 999,
        "meta_rev_at_epoch": 184,
        "meta_bstar": 0.00022804,
        "meta_mean_motion_dot": 0.00012323,
        "meta_mean_motion_ddot": 0,
        "tle_line1": "1 66664U 25275A   25342.86487848  .00012323  00000+0  22804-3 0  9997",
        "tle_line2": "2 66664  51.6308 161.6653 0003381 221.9847 138.0883 15.49428834  1841"
      },
      "geometry": {
        "type": "Point",
        "coordinates": [
          -41.67573111131737,
          23.998095131645858
        ]
      }
    },
    {
      "type": "Feature",
      "properties": {
        "norad_id": 66906,
        "name": "1998-067XS",
        "group": "stations",
        "lat": 10.148094477926016,
        "lon": -29.212777516633892,
        "alt_km": 412.6078202300332,
        "timestamp": "2025-12-09T09:46:46.439226+00:00",
        "meta_object_name": "1998-067XS",
        "meta_object_id": "1998-067XS",
        "meta_epoch": "2025-12-08T22:13:59.028960",
        "meta_mean_motion": 15.50272351,
        "meta_eccentricity": 0.0004021,
        "meta_inclination": 51.6297,
        "meta_ra_of_asc_node": 161.3264,
        "meta_arg_of_pericenter": 185.5281,
        "meta_mean_anomaly": 174.5664,
        "meta_ephemeris_type": 0,
        "meta_classification_type": "U",
        "meta_norad_cat_id": 66906,
        "meta_element_set_no": 999,
        "meta_rev_at_epoch": 102,
        "meta_bstar": 0.000538,
        "meta_mean_motion_dot": 0.0003067,
        "meta_mean_motion_ddot": 0,
        "tle_line1": "1 66906U 98067XS  25342.92637765  .00030670  00000+0  53800-3 0  9992",
        "tle_line2": "2 66906  51.6297 161.3264 0004021 185.5281 174.5664 15.50272351  1026"
      },
      "geometry": {
        "type": "Point",
        "coordinates": [
          -29.212777516633892,
          10.148094477926016
        ]
      }
    },
    {
      "type": "Feature",
      "properties": {
        "norad_id": 66907,
        "name": "1998-067XT",
        "group": "stations",
        "lat": 4.928375440080876,
        "lon": -24.991633381551,
        "alt_km": 411.48717153361576,
        "timestamp": "2025-12-09T09:46:46.439242+00:00",
        "meta_object_name": "1998-067XT",
        "meta_object_id": "1998-067XT",
        "meta_epoch": "2025-12-08T19:06:53.694720",
        "meta_mean_motion": 15.50762002,
        "meta_eccentricity": 0.00049716,
        "meta_inclination": 51.6302,
        "meta_ra_of_asc_node": 161.9586,
        "meta_arg_of_pericenter": 204.3216,
        "meta_mean_anomaly": 155.7539,
        "meta_ephemeris_type": 0,
        "meta_classification_type": "U",
        "meta_norad_cat_id": 66907,
        "meta_element_set_no": 999,
        "meta_rev_at_epoch": 100,
        "meta_bstar": 0.0012614232,
        "meta_mean_motion_dot": 0.00074227,
        "meta_mean_motion_ddot": 0,
        "tle_line1": "1 66907U 98067XT  25342.79645480  .00074227  00000+0  12614-2 0  9994",
        "tle_line2": "2 66907  51.6302 161.9586 0004971 204.3216 155.7539 15.50762002  1006"
      },
      "geometry": {
        "type": "Point",
        "coordinates": [
          -24.991633381551,
          4.928375440080876
        ]
      }
    }
  ]
}